STARLINK-36644          
1 67821U 26033A   26074.91668981 -.01849748  00000+0 -21949-1 0  9993
2 67821  42.9992 233.7359 0001888 281.0351 132.0761 15.63415805  5663
STARLINK-36643          
1 67822U 26033B   26074.91668981 -.01849048  00000+0 -26253-1 0  9990
2 67822  42.9992 233.9303 0001662 275.3062  59.5432 15.58822847  5660
STARLINK-36646          
1 67823U 26033C   26074.91668981 -.01849598  00000+0 -23333-1 0  9997
2 67823  42.9993 233.7786 0001830 278.7506 117.1219 15.61868083  5662
STARLINK-36647          
1 67824U 26033D   26074.91668981 -.01851622  00000+0 -25137-1 0  9993
2 67824  42.9994 233.8526 0001838 273.8678  92.1624 15.59988920  5663
STARLINK-36648          
1 67825U 26033E   26074.91668981 -.01894104  00000+0 -16923-1 0  9999
2 67825  42.9996 233.4669 0001399 282.4537 238.3232 15.70411584  5661
STARLINK-35865          
1 67826U 26033F   26074.91668981 -.01864594  00000+0 -21741-1 0  9994
2 67826  42.9995 233.6629 0001705 283.4378 158.3060 15.63882535  5664
STARLINK-36289          
1 67827U 26033G   26074.91668981 -.01847593  00000+0 -25494-1 0  9994
2 67827  42.9994 233.8405 0001762 276.7544  93.9627 15.59561387  5668
STARLINK-36670          
1 67828U 26033H   26074.91668981 -.01845677  00000+0 -23676-1 0  9996
2 67828  42.9994 233.7433 0001721 278.7929 130.9162 15.61435546  5669
STARLINK-36144          
1 67829U 26033J   26074.91668981 -.01845269  00000+0 -24724-1 0  9999
2 67829  42.9991 233.7826 0001876 277.9991 115.6640 15.60316788  5660
STARLINK-36611          
1 67830U 26033K   26074.91668981 -.01846569  00000+0 -22734-1 0  9994
2 67830  42.9994 233.6762 0001832 279.8164 156.4460 15.62480918  5660
STARLINK-36661          
1 67831U 26033L   26074.91668981 -.01844852  00000+0 -28104-1 0  9995
2 67831  42.9994 233.9289 0001722 272.4180  62.3327 15.56963775  5660
STARLINK-36662          
1 67832U 26033M   26074.91668981 -.01212716  00000+0 -61256-2 0  9990
2 67832  42.9989 232.2297 0001593 277.0903  14.3541 15.83209481  5668
