CCSDS_OMM_VERS = 2.0
CREATION_DATE  = 
ORIGINATOR     = 

OBJECT_NAME    = STARLINK-36644
OBJECT_ID      = 2026-033A
CENTER_NAME    = EARTH
REF_FRAME      = TEME
TIME_SYSTEM    = UTC
MEAN_ELEMENT_THEORY = SGP/SGP4

EPOCH          = 2026-03-15T22:00:01.999584
MEAN_MOTION    = 15.63415805
ECCENTRICITY   = .00018887
INCLINATION    = 42.9992
RA_OF_ASC_NODE = 233.7359
ARG_OF_PERICENTER = 281.0351
MEAN_ANOMALY   = 132.0761

EPHEMERIS_TYPE = 0
CLASSIFICATION_TYPE = U
NORAD_CAT_ID   = 67821
ELEMENT_SET_NO = 999
REV_AT_EPOCH   = 566
BSTAR          = -.21949245E-1
MEAN_MOTION_DOT = -.1849748E-1
MEAN_MOTION_DDOT = 0

CCSDS_OMM_VERS = 2.0
CREATION_DATE  = 
ORIGINATOR     = 

OBJECT_NAME    = STARLINK-36643
OBJECT_ID      = 2026-033B
CENTER_NAME    = EARTH
REF_FRAME      = TEME
TIME_SYSTEM    = UTC
MEAN_ELEMENT_THEORY = SGP/SGP4

EPOCH          = 2026-03-15T22:00:01.999584
MEAN_MOTION    = 15.58822847
ECCENTRICITY   = .00016623
INCLINATION    = 42.9992
RA_OF_ASC_NODE = 233.9303
ARG_OF_PERICENTER = 275.3062
MEAN_ANOMALY   = 59.5432

EPHEMERIS_TYPE = 0
CLASSIFICATION_TYPE = U
NORAD_CAT_ID   = 67822
ELEMENT_SET_NO = 999
REV_AT_EPOCH   = 566
BSTAR          = -.26252601E-1
MEAN_MOTION_DOT = -.1849048E-1
MEAN_MOTION_DDOT = 0

CCSDS_OMM_VERS = 2.0
CREATION_DATE  = 
ORIGINATOR     = 

OBJECT_NAME    = STARLINK-36646
OBJECT_ID      = 2026-033C
CENTER_NAME    = EARTH
REF_FRAME      = TEME
TIME_SYSTEM    = UTC
MEAN_ELEMENT_THEORY = SGP/SGP4

EPOCH          = 2026-03-15T22:00:01.999584
MEAN_MOTION    = 15.61868083
ECCENTRICITY   = .00018303
INCLINATION    = 42.9993
RA_OF_ASC_NODE = 233.7786
ARG_OF_PERICENTER = 278.7506
MEAN_ANOMALY   = 117.1219

EPHEMERIS_TYPE = 0
CLASSIFICATION_TYPE = U
NORAD_CAT_ID   = 67823
ELEMENT_SET_NO = 999
REV_AT_EPOCH   = 566
BSTAR          = -.2333291E-1
MEAN_MOTION_DOT = -.1849598E-1
MEAN_MOTION_DDOT = 0

CCSDS_OMM_VERS = 2.0
CREATION_DATE  = 
ORIGINATOR     = 

OBJECT_NAME    = STARLINK-36647
OBJECT_ID      = 2026-033D
CENTER_NAME    = EARTH
REF_FRAME      = TEME
TIME_SYSTEM    = UTC
MEAN_ELEMENT_THEORY = SGP/SGP4

EPOCH          = 2026-03-15T22:00:01.999584
MEAN_MOTION    = 15.59988920
ECCENTRICITY   = .00018385
INCLINATION    = 42.9994
RA_OF_ASC_NODE = 233.8526
ARG_OF_PERICENTER = 273.8678
MEAN_ANOMALY   = 92.1624

EPHEMERIS_TYPE = 0
CLASSIFICATION_TYPE = U
NORAD_CAT_ID   = 67824
ELEMENT_SET_NO = 999
REV_AT_EPOCH   = 566
BSTAR          = -.25137463E-1
MEAN_MOTION_DOT = -.1851622E-1
MEAN_MOTION_DDOT = 0

CCSDS_OMM_VERS = 2.0
CREATION_DATE  = 
ORIGINATOR     = 

OBJECT_NAME    = STARLINK-36648
OBJECT_ID      = 2026-033E
CENTER_NAME    = EARTH
REF_FRAME      = TEME
TIME_SYSTEM    = UTC
MEAN_ELEMENT_THEORY = SGP/SGP4

EPOCH          = 2026-03-15T22:00:01.999584
MEAN_MOTION    = 15.70411584
ECCENTRICITY   = .00013994
INCLINATION    = 42.9996
RA_OF_ASC_NODE = 233.4669
ARG_OF_PERICENTER = 282.4537
MEAN_ANOMALY   = 238.3232

EPHEMERIS_TYPE = 0
CLASSIFICATION_TYPE = U
NORAD_CAT_ID   = 67825
ELEMENT_SET_NO = 999
REV_AT_EPOCH   = 566
BSTAR          = -.16923046E-1
MEAN_MOTION_DOT = -.1894104E-1
MEAN_MOTION_DDOT = 0

CCSDS_OMM_VERS = 2.0
CREATION_DATE  = 
ORIGINATOR     = 

OBJECT_NAME    = STARLINK-35865
OBJECT_ID      = 2026-033F
CENTER_NAME    = EARTH
REF_FRAME      = TEME
TIME_SYSTEM    = UTC
MEAN_ELEMENT_THEORY = SGP/SGP4

EPOCH          = 2026-03-15T22:00:01.999584
MEAN_MOTION    = 15.63882535
ECCENTRICITY   = .00017052
INCLINATION    = 42.9995
RA_OF_ASC_NODE = 233.6629
ARG_OF_PERICENTER = 283.4378
MEAN_ANOMALY   = 158.3060

EPHEMERIS_TYPE = 0
CLASSIFICATION_TYPE = U
NORAD_CAT_ID   = 67826
ELEMENT_SET_NO = 999
REV_AT_EPOCH   = 566
BSTAR          = -.21741089E-1
MEAN_MOTION_DOT = -.1864594E-1
MEAN_MOTION_DDOT = 0

CCSDS_OMM_VERS = 2.0
CREATION_DATE  = 
ORIGINATOR     = 

OBJECT_NAME    = STARLINK-36289
OBJECT_ID      = 2026-033G
CENTER_NAME    = EARTH
REF_FRAME      = TEME
TIME_SYSTEM    = UTC
MEAN_ELEMENT_THEORY = SGP/SGP4

EPOCH          = 2026-03-15T22:00:01.999584
MEAN_MOTION    = 15.59561387
ECCENTRICITY   = .0001762
INCLINATION    = 42.9994
RA_OF_ASC_NODE = 233.8405
ARG_OF_PERICENTER = 276.7544
MEAN_ANOMALY   = 93.9627

EPHEMERIS_TYPE = 0
CLASSIFICATION_TYPE = U
NORAD_CAT_ID   = 67827
ELEMENT_SET_NO = 999
REV_AT_EPOCH   = 566
BSTAR          = -.25494082E-1
MEAN_MOTION_DOT = -.1847593E-1
MEAN_MOTION_DDOT = 0

CCSDS_OMM_VERS = 2.0
CREATION_DATE  = 
ORIGINATOR     = 

OBJECT_NAME    = STARLINK-36670
OBJECT_ID      = 2026-033H
CENTER_NAME    = EARTH
REF_FRAME      = TEME
TIME_SYSTEM    = UTC
MEAN_ELEMENT_THEORY = SGP/SGP4

EPOCH          = 2026-03-15T22:00:01.999584
MEAN_MOTION    = 15.61435546
ECCENTRICITY   = .00017216
INCLINATION    = 42.9994
RA_OF_ASC_NODE = 233.7433
ARG_OF_PERICENTER = 278.7929
MEAN_ANOMALY   = 130.9162

EPHEMERIS_TYPE = 0
CLASSIFICATION_TYPE = U
NORAD_CAT_ID   = 67828
ELEMENT_SET_NO = 999
REV_AT_EPOCH   = 566
BSTAR          = -.23676467E-1
MEAN_MOTION_DOT = -.1845677E-1
MEAN_MOTION_DDOT = 0

CCSDS_OMM_VERS = 2.0
CREATION_DATE  = 
ORIGINATOR     = 

OBJECT_NAME    = STARLINK-36144
OBJECT_ID      = 2026-033J
CENTER_NAME    = EARTH
REF_FRAME      = TEME
TIME_SYSTEM    = UTC
MEAN_ELEMENT_THEORY = SGP/SGP4

EPOCH          = 2026-03-15T22:00:01.999584
MEAN_MOTION    = 15.60316788
ECCENTRICITY   = .0001876
INCLINATION    = 42.9991
RA_OF_ASC_NODE = 233.7826
ARG_OF_PERICENTER = 277.9991
MEAN_ANOMALY   = 115.6640

EPHEMERIS_TYPE = 0
CLASSIFICATION_TYPE = U
NORAD_CAT_ID   = 67829
ELEMENT_SET_NO = 999
REV_AT_EPOCH   = 566
BSTAR          = -.24723807E-1
MEAN_MOTION_DOT = -.1845269E-1
MEAN_MOTION_DDOT = 0

CCSDS_OMM_VERS = 2.0
CREATION_DATE  = 
ORIGINATOR     = 

OBJECT_NAME    = STARLINK-36611
OBJECT_ID      = 2026-033K
CENTER_NAME    = EARTH
REF_FRAME      = TEME
TIME_SYSTEM    = UTC
MEAN_ELEMENT_THEORY = SGP/SGP4

EPOCH          = 2026-03-15T22:00:01.999584
MEAN_MOTION    = 15.62480918
ECCENTRICITY   = .0001832
INCLINATION    = 42.9994
RA_OF_ASC_NODE = 233.6762
ARG_OF_PERICENTER = 279.8164
MEAN_ANOMALY   = 156.4460

EPHEMERIS_TYPE = 0
CLASSIFICATION_TYPE = U
NORAD_CAT_ID   = 67830
ELEMENT_SET_NO = 999
REV_AT_EPOCH   = 566
BSTAR          = -.22734421E-1
MEAN_MOTION_DOT = -.1846569E-1
MEAN_MOTION_DDOT = 0

CCSDS_OMM_VERS = 2.0
CREATION_DATE  = 
ORIGINATOR     = 

OBJECT_NAME    = STARLINK-36661
OBJECT_ID      = 2026-033L
CENTER_NAME    = EARTH
REF_FRAME      = TEME
TIME_SYSTEM    = UTC
MEAN_ELEMENT_THEORY = SGP/SGP4

EPOCH          = 2026-03-15T22:00:01.999584
MEAN_MOTION    = 15.56963775
ECCENTRICITY   = .00017227
INCLINATION    = 42.9994
RA_OF_ASC_NODE = 233.9289
ARG_OF_PERICENTER = 272.4180
MEAN_ANOMALY   = 62.3327

EPHEMERIS_TYPE = 0
CLASSIFICATION_TYPE = U
NORAD_CAT_ID   = 67831
ELEMENT_SET_NO = 999
REV_AT_EPOCH   = 566
BSTAR          = -.28103953E-1
MEAN_MOTION_DOT = -.1844852E-1
MEAN_MOTION_DDOT = 0

CCSDS_OMM_VERS = 2.0
CREATION_DATE  = 
ORIGINATOR     = 

OBJECT_NAME    = STARLINK-36662
OBJECT_ID      = 2026-033M
CENTER_NAME    = EARTH
REF_FRAME      = TEME
TIME_SYSTEM    = UTC
MEAN_ELEMENT_THEORY = SGP/SGP4

EPOCH          = 2026-03-15T22:00:01.999584
MEAN_MOTION    = 15.83209481
ECCENTRICITY   = .00015932
INCLINATION    = 42.9989
RA_OF_ASC_NODE = 232.2297
ARG_OF_PERICENTER = 277.0903
MEAN_ANOMALY   = 14.3541

EPHEMERIS_TYPE = 0
CLASSIFICATION_TYPE = U
NORAD_CAT_ID   = 67832
ELEMENT_SET_NO = 999
REV_AT_EPOCH   = 566
BSTAR          = -.61256196E-2
MEAN_MOTION_DOT = -.1212716E-1
MEAN_MOTION_DDOT = 0

